$$SOE
2461295.500000000, A.D. 2026-Sep-12 00:00:00.0000, -4.047299461705661E+08, 3.424284335436431E+08, 1.837675804401093E+08,
2461302.500000000, A.D. 2026-Sep-19 00:00:00.0000, -4.107132952225941E+08, 3.357786488970601E+08, 1.843615783453787E+08,
2461309.500000000, A.D. 2026-Sep-26 00:00:00.0000, -4.165841900109619E+08, 3.290371247118115E+08, 1.849048449261408E+08,
2461316.500000000, A.D. 2026-Oct-03 00:00:00.0000, -4.223413325740708E+08, 3.222059497985959E+08, 1.853973727578584E+08,
2461323.500000000, A.D. 2026-Oct-10 00:00:00.0000, -4.279834562621399E+08, 3.152872209199506E+08, 1.858391654923112E+08,
2461330.500000000, A.D. 2026-Oct-17 00:00:00.0000, -4.335093255581326E+08, 3.082830424943711E+08, 1.862302377212659E+08,
2461337.500000000, A.D. 2026-Oct-24 00:00:00.0000, -4.389177359110433E+08, 3.011955262179606E+08, 1.865706148358136E+08,
2461344.500000000, A.D. 2026-Oct-31 00:00:00.0000, -4.442075134831208E+08, 2.940267905365502E+08, 1.868603328670053E+08,
2461351.500000000, A.D. 2026-Nov-07 00:00:00.0000, -4.493775144722816E+08, 2.867789600419405E+08, 1.870994382828894E+08,
2461358.500000000, A.D. 2026-Nov-14 00:00:00.0000, -4.544266238092011E+08, 2.794541656791250E+08, 1.872879877962348E+08,
2461365.500000000, A.D. 2026-Nov-21 00:00:00.0000, -4.593537550415956E+08, 2.720545464458996E+08, 1.874260484052603E+08,
2461372.500000000, A.D. 2026-Nov-28 00:00:00.0000, -4.641578524046530E+08, 2.645822495769749E+08, 1.875136975137953E+08,
2461379.500000000, A.D. 2026-Dec-05 00:00:00.0000, -4.688378914577831E+08, 2.570394285563019E+08, 1.875510227454575E+08,
2461386.500000000, A.D. 2026-Dec-12 00:00:00.0000, -4.733928781225200E+08, 2.494282420676022E+08, 1.875381216908405E+08,
2461393.500000000, A.D. 2026-Dec-19 00:00:00.0000, -4.778218480097098E+08, 2.417508538889273E+08, 1.874751017618154E+08,
2461400.500000000, A.D. 2026-Dec-26 00:00:00.0000, -4.821238661790823E+08, 2.340094328633350E+08, 1.873620800956468E+08,
2461407.500000000, A.D. 2027-Jan-02 00:00:00.0000, -4.862980270556266E+08, 2.262061527547589E+08, 1.871991834681922E+08,
2461414.500000000, A.D. 2027-Jan-09 00:00:00.0000, -4.903434543861574E+08, 2.183431920088436E+08, 1.869865482069659E+08,
2461421.500000000, A.D. 2027-Jan-16 00:00:00.0000, -4.942593012014703E+08, 2.104227334268491E+08, 1.867243201012418E+08,
2461428.500000000, A.D. 2027-Jan-23 00:00:00.0000, -4.980447497393352E+08, 2.024469637120405E+08, 1.864126543014029E+08,
2461435.500000000, A.D. 2027-Jan-30 00:00:00.0000, -5.016990111423093E+08, 1.944180728397491E+08, 1.860517151861893E+08,
2461442.500000000, A.D. 2027-Feb-06 00:00:00.0000, -5.052213245076430E+08, 1.863382535902196E+08, 1.856416761866108E+08,
2461449.500000000, A.D. 2027-Feb-13 00:00:00.0000, -5.086109557517437E+08, 1.782097024632028E+08, 1.851827197084902E+08,
2461456.500000000, A.D. 2027-Feb-20 00:00:00.0000, -5.118671986553857E+08, 1.700346211830026E+08, 1.846750373060887E+08,
2461463.500000000, A.D. 2027-Feb-27 00:00:00.0000, -5.149893766954215E+08, 1.618152155808091E+08, 1.841188297164145E+08,
2461470.500000000, A.D. 2027-Mar-06 00:00:00.0000, -5.179768426448128E+08, 1.535536937771791E+08, 1.835143066339894E+08,
2461477.500000000, A.D. 2027-Mar-13 00:00:00.0000, -5.208289775408837E+08, 1.452522657133168E+08, 1.828616865395371E+08,
2461484.500000000, A.D. 2027-Mar-20 00:00:00.0000, -5.235451901517109E+08, 1.369131431957419E+08, 1.821611966177154E+08,
2461491.500000000, A.D. 2027-Mar-27 00:00:00.0000, -5.261249167390739E+08, 1.285385399050857E+08, 1.814130727004516E+08,
2461498.500000000, A.D. 2027-Apr-03 00:00:00.0000, -5.285676209151803E+08, 1.201306713209741E+08, 1.806175592132516E+08,
2461505.500000000, A.D. 2027-Apr-10 00:00:00.0000, -5.308727935319865E+08, 1.116917545856566E+08, 1.797749091206436E+08,
2461512.500000000, A.D. 2027-Apr-17 00:00:00.0000, -5.330399525811568E+08, 1.032240082916855E+08, 1.788853838675286E+08,
2461519.500000000, A.D. 2027-Apr-24 00:00:00.0000, -5.350686430255840E+08, 9.472965213116448E+07, 1.779492533040930E+08,
2461526.500000000, A.D. 2027-May-01 00:00:00.0000, -5.369584362628989E+08, 8.621090643411851E+07, 1.769667955690600E+08,
2461533.500000000, A.D. 2027-May-08 00:00:00.0000, -5.387089289135174E+08, 7.766999234407623E+07, 1.759382969641704E+08,
2461540.500000000, A.D. 2027-May-15 00:00:00.0000, -5.403197424301274E+08, 6.910913358379035E+07, 1.748640520350283E+08,
2461547.500000000, A.D. 2027-May-22 00:00:00.0000, -5.417905250930799E+08, 6.053055721908119E+07, 1.737443637901772E+08,
2461554.500000000, A.D. 2027-May-29 00:00:00.0000, -5.431209530361878E+08, 5.193649195276144E+07, 1.725795436308925E+08,
2461561.500000000, A.D. 2027-Jun-05 00:00:00.0000, -5.443107294173944E+08, 4.332916708043754E+07, 1.713699111661901E+08,
2461568.500000000, A.D. 2027-Jun-12 00:00:00.0000, -5.453595837413648E+08, 3.471081253921812E+07, 1.701157941321888E+08,
2461575.500000000, A.D. 2027-Jun-19 00:00:00.0000, -5.462672716653792E+08, 2.608365911364251E+07, 1.688175283699670E+08,
2461582.500000000, A.D. 2027-Jun-26 00:00:00.0000, -5.470335750095044E+08, 1.744993853725230E+07, 1.674754578152448E+08,
2461589.500000000, A.D. 2027-Jul-03 00:00:00.0000, -5.476583018390328E+08, 8.811883497925051E+06, 1.660899344886750E+08,
2461596.500000000, A.D. 2027-Jul-10 00:00:00.0000, -5.481412865823454E+08, 1.717275554238185E+05, 1.646613184842480E+08,
2461603.500000000, A.D. 2027-Jul-17 00:00:00.0000, -5.484823901478652E+08, -8.468295068034925E+06, 1.631899779494959E+08,
2461610.500000000, A.D. 2027-Jul-24 00:00:00.0000, -5.486814998837124E+08, -1.710594988734547E+07, 1.616762890382171E+08,
2461617.500000000, A.D. 2027-Jul-31 00:00:00.0000, -5.487385289686453E+08, -2.573900250901945E+07, 1.601206358174121E+08,
2461624.500000000, A.D. 2027-Aug-07 00:00:00.0000, -5.486534154349366E+08, -3.436521778930426E+07, 1.585234102410525E+08,
2461631.500000000, A.D. 2027-Aug-14 00:00:00.0000, -5.484261231244576E+08, -4.298235804982467E+07, 1.568850123811412E+08,
2461638.500000000, A.D. 2027-Aug-21 00:00:00.0000, -5.480566439605737E+08, -5.158818371533277E+07, 1.552058505847664E+08,
2461645.500000000, A.D. 2027-Aug-28 00:00:00.0000, -5.475449981052117E+08, -6.018045516996121E+07, 1.534863413409235E+08,
2461652.500000000, A.D. 2027-Sep-04 00:00:00.0000, -5.468912331814892E+08, -6.875693332933016E+07, 1.517269091693877E+08,
2461659.500000000, A.D. 2027-Sep-11 00:00:00.0000, -5.460954239564515E+08, -7.731537959014517E+07, 1.499279866048843E+08,
2461666.500000000, A.D. 2027-Sep-18 00:00:00.0000, -5.451576723504200E+08, -8.585355580788037E+07, 1.480900142106968E+08,
2461673.500000000, A.D. 2027-Sep-25 00:00:00.0000, -5.440781075438278E+08, -9.436922438044956E+07, 1.462134405939268E+08,
2461680.500000000, A.D. 2027-Oct-02 00:00:00.0000, -5.428568861062649E+08, -1.028601484106327E+08, 1.442987224173939E+08,
2461687.500000000, A.D. 2027-Oct-09 00:00:00.0000, -5.414941921252848E+08, -1.113240919521416E+08, 1.423463244055414E+08,
2461694.500000000, A.D. 2027-Oct-16 00:00:00.0000, -5.399902372721000E+08, -1.197588203944313E+08, 1.403567193340341E+08,
2461701.500000000, A.D. 2027-Oct-23 00:00:00.0000, -5.383452605446517E+08, -1.281621009918984E+08, 1.383303879787610E+08,
2461708.500000000, A.D. 2027-Oct-30 00:00:00.0000, -5.365595273134682E+08, -1.365317029268799E+08, 1.362678190396739E+08,
2461715.500000000, A.D. 2027-Nov-06 00:00:00.0000, -5.346333288335127E+08, -1.448653957781304E+08, 1.341695092381354E+08,
2461722.500000000, A.D. 2027-Nov-13 00:00:00.0000, -5.325669842073696E+08, -1.531609484712461E+08, 1.320359636000252E+08,
2461729.500000000, A.D. 2027-Nov-20 00:00:00.0000, -5.303608418984079E+08, -1.614161308971617E+08, 1.298676954799280E+08,
2461736.500000000, A.D. 2027-Nov-27 00:00:00.0000, -5.280152791763667E+08, -1.696287152339184E+08, 1.276652264202732E+08,
2461743.500000000, A.D. 2027-Dec-04 00:00:00.0000, -5.255307015181006E+08, -1.777964760576620E+08, 1.254290861053425E+08,
2461750.500000000, A.D. 2027-Dec-11 00:00:00.0000, -5.229075425134671E+08, -1.859171902073357E+08, 1.231598123816232E+08,
2461757.500000000, A.D. 2027-Dec-18 00:00:00.0000, -5.201462640013579E+08, -1.939886367427822E+08, 1.208579512915876E+08,
2461764.500000000, A.D. 2027-Dec-25 00:00:00.0000, -5.172473562840279E+08, -2.020085969987910E+08, 1.185240571068784E+08,
2461771.500000000, A.D. 2028-Jan-01 00:00:00.0000, -5.142113383783336E+08, -2.099748547207198E+08, 1.161586923583548E+08,
$$EOE